start=new Date('2022-02-19T00:00:00.000Z').valueOf();
sats=[{"RCS_SIZE":"LARGE","SEMIMAJOR_AXIS":"6925.305","INCLINATION":"53.0543","OBJECT_TYPE":"PAYLOAD","MEAN_ELEMENT_THEORY":"SGP4","MEAN_MOTION_DOT":"0.00003289","MEAN_MOTION":"15.06414322","PERIOD":"95.591","RA_OF_ASC_NODE":"104.7138","SITE":"AFETR","EPOCH":"2022-02-18T21:17:50.545248","REF_FRAME":"TEME","GP_ID":"196332490","OBJECT_ID":"2020-088AF","REV_AT_EPOCH":"6879","MEAN_ANOMALY":"297.3198","TLE_LINE2":"2 47151  53.0543 104.7138 0001432  62.7937 297.3198 15.06414322 68795","TIME_SYSTEM":"UTC","LAUNCH_DATE":"2020-11-25","MEAN_MOTION_DDOT":"0.0000000000000","ELEMENT_SET_NO":"999","PERIAPSIS":"546.178","COUNTRY_CODE":"US","NORAD_CAT_ID":"47151","ECCENTRICITY":"0.00014320","EPHEMERIS_TYPE":"0","DECAY_DATE":null,"ARG_OF_PERICENTER":"62.7937","OBJECT_NAME":"STARLINK-1864","TLE_LINE1":"1 47151U 20088AF  22049.88739057  .00003289  00000-0  23953-3 0  9997","APOAPSIS":"548.161","CENTER_NAME":"EARTH","BSTAR":"0.00023953000000","FILE":"3307132","CLASSIFICATION_TYPE":"U"},{"ARG_OF_PERICENTER":"67.1816","DECAY_DATE":null,"ECCENTRICITY":"0.00015810","COUNTRY_CODE":"US","NORAD_CAT_ID":"47152","EPHEMERIS_TYPE":"0","APOAPSIS":"548.291","OBJECT_NAME":"STARLINK-1866","TLE_LINE1":"1 47152U 20088AG  22049.87265625  .00002442  00000-0  18273-3 0  9991","FILE":"3307132","BSTAR":"0.00018273000000","CLASSIFICATION_TYPE":"U","CENTER_NAME":"EARTH","TIME_SYSTEM":"UTC","MEAN_MOTION_DDOT":"0.0000000000000","LAUNCH_DATE":"2020-11-25","ELEMENT_SET_NO":"999","PERIAPSIS":"546.101","EPOCH":"2022-02-18T20:56:37.500000","REF_FRAME":"TEME","GP_ID":"196333741","REV_AT_EPOCH":"6879","MEAN_ANOMALY":"292.9340","OBJECT_ID":"2020-088AG","TLE_LINE2":"2 47152  53.0535 104.7888 0001581  67.1816 292.9340 15.06405672 68797","INCLINATION":"53.0535","OBJECT_TYPE":"PAYLOAD","RCS_SIZE":"LARGE","SEMIMAJOR_AXIS":"6925.331","MEAN_MOTION_DOT":"0.00002442","MEAN_ELEMENT_THEORY":"SGP4","MEAN_MOTION":"15.06405672","PERIOD":"95.592","SITE":"AFETR","RA_OF_ASC_NODE":"104.7888"},{"CENTER_NAME":"EARTH","BSTAR":"-0.00000814450000","FILE":"3307132","CLASSIFICATION_TYPE":"U","EPHEMERIS_TYPE":"0","NORAD_CAT_ID":"47153","COUNTRY_CODE":"US","ECCENTRICITY":"0.00014090","DECAY_DATE":null,"ARG_OF_PERICENTER":"63.8950","TLE_LINE1":"1 47153U 20088AH  22049.64825263 -.00000403  00000-0 -81445-5 0  9997","OBJECT_NAME":"STARLINK-1867","APOAPSIS":"548.211","ELEMENT_SET_NO":"999","PERIAPSIS":"546.259","TIME_SYSTEM":"UTC","LAUNCH_DATE":"2020-11-25","MEAN_MOTION_DDOT":"0.0000000000000","OBJECT_ID":"2020-088AH","MEAN_ANOMALY":"296.2184","REV_AT_EPOCH":"6869","TLE_LINE2":"2 47153  53.0542 110.7846 0001409  63.8950 296.2184 15.06393047 68692","EPOCH":"2022-02-18T15:33:29.027232","GP_ID":"196333489","REF_FRAME":"TEME","PERIOD":"95.593","MEAN_MOTION":"15.06393047","RA_OF_ASC_NODE":"110.7846","SITE":"AFETR","SEMIMAJOR_AXIS":"6925.370","RCS_SIZE":"LARGE","OBJECT_TYPE":"PAYLOAD","INCLINATION":"53.0542","MEAN_MOTION_DOT":"-0.00000403","MEAN_ELEMENT_THEORY":"SGP4"},{"MEAN_MOTION_DOT":"0.00001165","MEAN_ELEMENT_THEORY":"SGP4","SEMIMAJOR_AXIS":"6925.372","RCS_SIZE":"LARGE","OBJECT_TYPE":"PAYLOAD","INCLINATION":"53.0536","RA_OF_ASC_NODE":"96.6890","SITE":"AFETR","PERIOD":"95.593","MEAN_MOTION":"15.06392491","REF_FRAME":"TEME","GP_ID":"196292931","EPOCH":"2022-02-18T10:42:15.013440","TLE_LINE2":"2 47154  53.0536  96.6890 0001311  64.5972 295.5152 15.06392491 68870","OBJECT_ID":"2020-088AJ","REV_AT_EPOCH":"6887","MEAN_ANOMALY":"295.5152","LAUNCH_DATE":"2020-11-25","MEAN_MOTION_DDOT":"0.0000000000000","TIME_SYSTEM":"UTC","PERIAPSIS":"546.329","ELEMENT_SET_NO":"999","TLE_LINE1":"1 47154U 20088AJ  22049.44600710  .00001165  00000-0  97111-4 0  9994","OBJECT_NAME":"STARLINK-1868","APOAPSIS":"548.144","EPHEMERIS_TYPE":"0","NORAD_CAT_ID":"47154","COUNTRY_CODE":"US","ECCENTRICITY":"0.00013110","ARG_OF_PERICENTER":"64.5972","DECAY_DATE":null,"CENTER_NAME":"EARTH","CLASSIFICATION_TYPE":"U","FILE":"3306500","BSTAR":"0.00009711100000"},{"MEAN_MOTION_DDOT":"0.0000000000000","LAUNCH_DATE":"2020-11-25","TIME_SYSTEM":"UTC","PERIAPSIS":"545.917","ELEMENT_SET_NO":"999","APOAPSIS":"548.530","OBJECT_NAME":"STARLINK-1869","TLE_LINE1":"1 47155U 20088AK  22049.87909396 -.00002937  00000-0 -17836-3 0  9999","DECAY_DATE":null,"ARG_OF_PERICENTER":"48.5790","COUNTRY_CODE":"US","ECCENTRICITY":"0.00018870","NORAD_CAT_ID":"47155","EPHEMERIS_TYPE":"0","CLASSIFICATION_TYPE":"U","FILE":"3307132","BSTAR":"-0.00017836000000","CENTER_NAME":"EARTH","MEAN_ELEMENT_THEORY":"SGP4","MEAN_MOTION_DOT":"-0.00002937","INCLINATION":"53.0542","OBJECT_TYPE":"PAYLOAD","RCS_SIZE":"LARGE","SEMIMAJOR_AXIS":"6925.359","SITE":"AFETR","RA_OF_ASC_NODE":"114.7369","MEAN_MOTION":"15.06396707","PERIOD":"95.592","REF_FRAME":"TEME","GP_ID":"196332990","EPOCH":"2022-02-18T21:05:53.718144","TLE_LINE2":"2 47155  53.0542 114.7369 0001887  48.5790 311.5360 15.06396707 68659","MEAN_ANOMALY":"311.5360","REV_AT_EPOCH":"6865","OBJECT_ID":"2020-088AK"},{"APOAPSIS":"332.543","TLE_LINE1":"1 47156U 20088AL  22049.85699435 -.00000905  00000-0 -93538-6 0  9997","OBJECT_NAME":"STARLINK-1870","DECAY_DATE":null,"ARG_OF_PERICENTER":"277.6151","EPHEMERIS_TYPE":"0","COUNTRY_CODE":"US","NORAD_CAT_ID":"47156","ECCENTRICITY":"0.00079790","BSTAR":"-0.00000093538000","FILE":"3307132","CLASSIFICATION_TYPE":"U","CENTER_NAME":"EARTH","MEAN_MOTION_DDOT":"0.0000000000000","LAUNCH_DATE":"2020-11-25","TIME_SYSTEM":"UTC","PERIAPSIS":"321.843","ELEMENT_SET_NO":"999","REF_FRAME":"TEME","GP_ID":"196333242","EPOCH":"2022-02-18T20:34:04.311840","TLE_LINE2":"2 47156  53.0539 350.8100 0007979 277.6151  82.3964 15.81148783 70407","MEAN_ANOMALY":"82.3964","REV_AT_EPOCH":"7040","OBJECT_ID":"2020-088AL","MEAN_ELEMENT_THEORY":"SGP4","MEAN_MOTION_DOT":"-0.00000905","OBJECT_TYPE":"PAYLOAD","INCLINATION":"53.0539","SEMIMAJOR_AXIS":"6705.328","RCS_SIZE":"LARGE","SITE":"AFETR","RA_OF_ASC_NODE":"350.8100","PERIOD":"91.073","MEAN_MOTION":"15.81148783"},{"EPOCH":"2022-02-18T15:38:08.495808","GP_ID":"196333989","REF_FRAME":"TEME","MEAN_ANOMALY":"303.8980","REV_AT_EPOCH":"6876","OBJECT_ID":"2020-088AM","TLE_LINE2":"2 47157  53.0532 105.7587 0001631  56.2164 303.8980 15.06405171 68760","OBJECT_TYPE":"PAYLOAD","INCLINATION":"53.0532","SEMIMAJOR_AXIS":"6925.333","RCS_SIZE":"LARGE","MEAN_MOTION_DOT":"0.00001634","MEAN_ELEMENT_THEORY":"SGP4","PERIOD":"95.592","MEAN_MOTION":"15.06405171","SITE":"AFETR","RA_OF_ASC_NODE":"105.7587","DECAY_DATE":null,"ARG_OF_PERICENTER":"56.2164","EPHEMERIS_TYPE":"0","COUNTRY_CODE":"US","ECCENTRICITY":"0.00016310","NORAD_CAT_ID":"47157","APOAPSIS":"548.327","TLE_LINE1":"1 47157U 20088AM  22049.65148722  .00001634  00000-0  12858-3 0  9995","OBJECT_NAME":"STARLINK-1871","FILE":"3307132","CLASSIFICATION_TYPE":"U","BSTAR":"0.00012858000000","CENTER_NAME":"EARTH","TIME_SYSTEM":"UTC","MEAN_MOTION_DDOT":"0.0000000000000","LAUNCH_DATE":"2020-11-25","ELEMENT_SET_NO":"999","PERIAPSIS":"546.068"},{"REV_AT_EPOCH":"6886","MEAN_ANOMALY":"297.4421","OBJECT_ID":"2020-088AN","TLE_LINE2":"2 47158  53.0539  96.8450 0001481  62.6718 297.4421 15.06397746 68863","EPOCH":"2022-02-18T09:49:10.856352","GP_ID":"196292432","REF_FRAME":"TEME","PERIOD":"95.592","MEAN_MOTION":"15.06397746","SITE":"AFETR","RA_OF_ASC_NODE":"96.8450","OBJECT_TYPE":"PAYLOAD","INCLINATION":"53.0539","SEMIMAJOR_AXIS":"6925.355","RCS_SIZE":"LARGE","MEAN_MOTION_DOT":"0.00002072","MEAN_ELEMENT_THEORY":"SGP4","CLASSIFICATION_TYPE":"U","FILE":"3306500","BSTAR":"0.00015796000000","CENTER_NAME":"EARTH","ARG_OF_PERICENTER":"62.6718","DECAY_DATE":null,"EPHEMERIS_TYPE":"0","NORAD_CAT_ID":"47158","COUNTRY_CODE":"US","ECCENTRICITY":"0.00014810","APOAPSIS":"548.246","TLE_LINE1":"1 47158U 20088AN  22049.40915343  .00002072  00000-0  15796-3 0  9991","OBJECT_NAME":"STARLINK-1873","ELEMENT_SET_NO":"999","PERIAPSIS":"546.195","TIME_SYSTEM":"UTC","MEAN_MOTION_DDOT":"0.0000000000000","LAUNCH_DATE":"2020-11-25"},{"MEAN_MOTION_DOT":"0.00371941","MEAN_ELEMENT_THEORY":"SGP4","SEMIMAJOR_AXIS":"6726.045","RCS_SIZE":"LARGE","OBJECT_TYPE":"PAYLOAD","INCLINATION":"53.0518","RA_OF_ASC_NODE":"76.1199","SITE":"AFETR","PERIOD":"91.495","MEAN_MOTION":"15.73849263","REF_FRAME":"TEME","GP_ID":"196292682","EPOCH":"2022-02-18T11:17:36.307968","TLE_LINE2":"2 47159  53.0518  76.1199 0006831 274.7049  85.3189 15.73849263 69168","OBJECT_ID":"2020-088AP","REV_AT_EPOCH":"6916","MEAN_ANOMALY":"85.3189","LAUNCH_DATE":"2020-11-25","MEAN_MOTION_DDOT":"0.0000000000000","TIME_SYSTEM":"UTC","PERIAPSIS":"343.315","ELEMENT_SET_NO":"999","TLE_LINE1":"1 47159U 20088AP  22049.47055912  .00371941  00000-0  24672-2 0  9992","OBJECT_NAME":"STARLINK-1874","APOAPSIS":"352.504","EPHEMERIS_TYPE":"0","COUNTRY_CODE":"US","ECCENTRICITY":"0.00068310","NORAD_CAT_ID":"47159","DECAY_DATE":null,"ARG_OF_PERICENTER":"274.7049","CENTER_NAME":"EARTH","CLASSIFICATION_TYPE":"U","FILE":"3306500","BSTAR":"0.00246720000000"},{"MEAN_ELEMENT_THEORY":"SGP4","MEAN_MOTION_DOT":"0.00007196","OBJECT_TYPE":"PAYLOAD","INCLINATION":"53.0527","SEMIMAJOR_AXIS":"6925.317","RCS_SIZE":"LARGE","SITE":"AFETR","RA_OF_ASC_NODE":"96.4032","PERIOD":"95.591","MEAN_MOTION":"15.06410415","REF_FRAME":"TEME","GP_ID":"196303089","EPOCH":"2022-02-18T12:12:29.317824","TLE_LINE2":"2 47161  53.0527  96.4032 0001448  61.3263 298.7872 15.06410415 69134","MEAN_ANOMALY":"298.7872","REV_AT_EPOCH":"6913","OBJECT_ID":"2020-088AR","MEAN_MOTION_DDOT":"0.0000000000000","LAUNCH_DATE":"2020-11-25","TIME_SYSTEM":"UTC","PERIAPSIS":"546.179","ELEMENT_SET_NO":"999","APOAPSIS":"548.184","TLE_LINE1":"1 47161U 20088AR  22049.50867266  .00007196  00000-0  50137-3 0  9996","OBJECT_NAME":"STARLINK-1876","DECAY_DATE":null,"ARG_OF_PERICENTER":"61.3263","EPHEMERIS_TYPE":"0","ECCENTRICITY":"0.00014480","COUNTRY_CODE":"US","NORAD_CAT_ID":"47161","FILE":"3306775","CLASSIFICATION_TYPE":"U","BSTAR":"0.00050137000000","CENTER_NAME":"EARTH"}];
